NORAD_CAT_ID,OBJECT_NAME,OBJECT_TYPE,EPOCH,MEAN_MOTION,ECCENTRICITY,INCLINATION,RA_OF_ASC_NODE,ARG_OF_PERICENTER,MEAN_ANOMALY,BSTAR,MEAN_MOTION_DOT,MEAN_MOTION_DDOT,TLE_LINE0,TLE_LINE1,TLE_LINE2,SEMIMAJOR_AXIS,PERIOD,APOGEE,PERIGEE,DECAYED
53843.0,STARLINK-4769,PAYLOAD,2023-08-16 22:30:41,15.08837235,0.0001179,53.2159,174.9605,92.0291,268.0836,2.3461e-05,8.6e-07,0.0,0 STARLINK-4769,1 53843U 22114AB  23228.93798363  .00000086  00000-0  23461-4 0  9992,2 53843  53.2159 174.9605 0001179  92.0291 268.0836 15.08837235 51161,6917.889,95.438,540.569,538.938,0.0
53843.0,STARLINK-4769,PAYLOAD,2023-08-17 03:16:50,15.08844677,0.0001405,53.2165,174.0708,97.8986,262.2166,6.4295e-05,7.36e-06,0.0,0 STARLINK-4769,1 53843U 22114AB  23229.13669774  .00000736  00000-0  64295-4 0  9990,2 53843  53.2165 174.0708 0001405  97.8986 262.2166 15.08844677 51192,6917.866,95.437,540.703,538.759,0.0
53843.0,STARLINK-4769,PAYLOAD,2023-08-18 03:07:38,15.08833923,0.0001392,53.2177,169.612,93.6514,266.4638,1.3299e-05,-7.6e-07,0.0,0 STARLINK-4769,1 53843U 22114AB  23230.13030857 -.00000076  00000-0  13299-4 0  9992,2 53843  53.2177 169.6120 0001392  93.6514 266.4638 15.08833923 51348,6917.899,95.438,540.727,538.801,0.0
53843.0,STARLINK-4769,PAYLOAD,2023-08-19 04:33:51,15.08691991,0.0002251,53.2166,164.8523,81.6617,278.4631,0.0021093,0.00033305,0.0,0 STARLINK-4769,1 53843U 22114AB  23231.19017747  .00033305  00000-0  21093-2 0  9991,2 53843  53.2166 164.8523 0002251  81.6617 278.4631 15.08691991 51507,6918.333,95.447,541.755,538.641,0.0
53843.0,STARLINK-4769,PAYLOAD,2023-08-19 18:52:17,15.0883412,0.0001558,53.217,162.1767,90.5355,269.5816,3.4519e-05,2.61e-06,0.0,0 STARLINK-4769,1 53843U 22114AB  23231.78631217  .00000261  00000-0  34519-4 0  9994,2 53843  53.2170 162.1767 0001558  90.5355 269.5816 15.08834120 51598,6917.898,95.438,540.841,538.686,0.0
53843.0,STARLINK-4769,PAYLOAD,2023-08-21 04:15:22,15.08851887,0.000141,53.2169,155.9306,88.2003,271.915,7.9373e-05,9.76e-06,0.0,0 STARLINK-4769,1 53843U 22114AB  23233.17734200  .00000976  00000-0  79373-4 0  9995,2 53843  53.2169 155.9306 0001410  88.2003 271.9150 15.08851887 51807,6917.844,95.437,540.684,538.734,0.0
53843.0,STARLINK-4769,PAYLOAD,2023-08-22 00:55:23,15.08841216,0.0001532,53.2169,152.0629,96.1135,264.0032,4.5111e-05,4.3e-06,0.0,0 STARLINK-4769,1 53843U 22114AB  23234.03846965  .00000430  00000-0  45111-4 0  9991,2 53843  53.2169 152.0629 0001532  96.1135 264.0032 15.08841216 51933,6917.877,95.437,540.801,538.682,0.0
53843.0,STARLINK-4769,PAYLOAD,2023-08-23 03:56:57,15.08845923,0.0001452,53.2172,147.0086,82.3568,277.7589,-1.6807e-05,-5.55e-06,0.0,0 STARLINK-4769,1 53843U 22114AB  23235.16454997 -.00000555  00000-0 -16807-4 0  9996,2 53843  53.2172 147.0086 0001452  82.3568 277.7589 15.08845923 52103,6917.862,95.437,540.732,538.723,0.0
53843.0,STARLINK-4769,PAYLOAD,2023-08-24 03:47:43,15.08845821,0.0001378,53.2167,142.5468,65.1024,295.0111,8.4916e-05,1.064e-05,0.0,0 STARLINK-4769,1 53843U 22114AB  23236.15814770  .00001064  00000-0  84916-4 0  9995,2 53843  53.2167 142.5468 0001378  65.1024 295.0111 15.08845821 52790,6917.863,95.437,540.681,538.774,0.0
53843.0,STARLINK-4769,PAYLOAD,2023-08-25 00:27:45,15.08836629,0.0001339,53.2171,138.6838,97.4155,262.6989,-2.7829e-05,-7.31e-06,0.0,0 STARLINK-4769,1 53843U 22114AB  23237.01927747 -.00000731  00000-0 -27829-4 0  9992,2 53843  53.2171 138.6838 0001339  97.4155 262.6989 15.08836629 52386,6917.891,95.438,540.682,538.829,0.0
53843.0,STARLINK-4769,PAYLOAD,2023-08-25 03:38:31,15.08843067,0.0001562,53.2174,138.0886,82.2948,277.8222,3.3353e-05,2.43e-06,0.0,0 STARLINK-4769,1 53843U 22114AB  23237.15175237  .00000243  00000-0  33353-4 0  9991,2 53843  53.2174 138.0886 0001562  82.2948 277.8222 15.08843067 52401,6917.871,95.437,540.817,538.655,0.0
53843.0,STARLINK-4769,PAYLOAD,2023-08-25 22:43:09,15.08839469,0.0001321,53.2167,134.5205,97.1838,262.9304,-2.8084e-05,-7.35e-06,0.0,0 STARLINK-4769,1 53843U 22114AB  23237.94663716 -.00000735  00000-0 -28084-4 0  9995,2 53843  53.2167 134.5205 0001321  97.1838 262.9304 15.08839469 52525,6917.882,95.438,540.661,538.833,0.0
53843.0,STARLINK-4769,PAYLOAD,2023-08-26 01:53:55,15.08844501,0.0001321,53.2168,133.9257,98.1704,261.9438,1.6812e-05,-2e-07,0.0,0 STARLINK-4769,1 53843U 22114AB  23238.07911256 -.00000020  00000-0  16812-4 0  9997,2 53843  53.2168 133.9257 0001321  98.1704 261.9438 15.08844501 52541,6917.867,95.437,540.645,538.818,0.0
53843.0,STARLINK-4769,PAYLOAD,2023-08-26 16:12:24,15.08835966,0.000187,53.2185,131.2492,94.6682,265.4523,3.5207e-05,2.72e-06,0.0,0 STARLINK-4769,1 53843U 22114AB  23238.67528006  .00000272  00000-0  35207-4 0  9997,2 53843  53.2185 131.2492 0001870  94.6682 265.4523 15.08835966 52636,6917.893,95.438,541.051,538.464,0.0
53843.0,STARLINK-4769,PAYLOAD,2023-08-26 20:58:33,15.08839711,0.0001532,53.2171,130.3578,92.5312,267.5856,-2.5751e-05,-6.98e-06,0.0,0 STARLINK-4769,1 53843U 22114AB  23238.87399973 -.00000698  00000-0 -25751-4 0  9995,2 53843  53.2171 130.3578 0001532  92.5312 267.5856 15.08839711 53206,6917.881,95.438,540.806,538.686,0.0
53843.0,STARLINK-4769,PAYLOAD,2023-08-27 01:44:42,15.08844916,0.0001334,53.2166,129.4652,90.1808,269.9337,1.348e-05,-7.3e-07,0.0,0 STARLINK-4769,1 53843U 22114AB  23239.07271491 -.00000073  00000-0  13480-4 0  9994,2 53843  53.2166 129.4652 0001334  90.1808 269.9337 15.08844916 52691,6917.865,95.437,540.653,538.808,0.0
53843.0,STARLINK-4769,PAYLOAD,2023-08-27 20:49:20,15.08839922,0.000143,53.2163,125.8971,89.5829,270.5327,1.0686e-06,-2.71e-06,0.0,0 STARLINK-4769,1 53843U 22114AB  23239.86760110 -.00000271  00000-0  10686-5 0  9998,2 53843  53.2163 125.8971 0001430  89.5829 270.5327 15.08839922 53356,6917.881,95.438,540.735,538.756,0.0
53843.0,STARLINK-4769,PAYLOAD,2023-08-28 01:35:29,15.08840535,0.0001425,53.2163,125.0051,94.5779,265.5376,7.9956e-05,9.85e-06,0.0,0 STARLINK-4769,1 53843U 22114AB  23240.06631799  .00000985  00000-0  79956-4 0  9997,2 53843  53.2163 125.0051 0001425  94.5779 265.5376 15.08840535 52844,6917.879,95.438,540.73,538.758,0.0
53843.0,STARLINK-4769,PAYLOAD,2023-08-28 15:53:58,15.08833222,0.0001429,53.2164,122.3299,83.3313,276.7842,3.5751e-05,2.81e-06,0.0,0 STARLINK-4769,1 53843U 22114AB  23240.66248483  .00000281  00000-0  35751-4 0  9991,2 53843  53.2164 122.3299 0001429  83.3313 276.7842 15.08833222 52930,6917.901,95.438,540.755,538.778,0.0
53843.0,STARLINK-4769,PAYLOAD,2023-08-28 20:40:08,15.08833967,0.0001518,53.2167,121.438,87.8192,272.2974,7.0422e-05,8.33e-06,0.0,0 STARLINK-4769,1 53843U 22114AB  23240.86120379  .00000833  00000-0  70422-4 0  9993,2 53843  53.2167 121.4380 0001518  87.8192 272.2974 15.08833967 53504,6917.899,95.438,540.814,538.714,0.0
53843.0,STARLINK-4769,PAYLOAD,2023-08-29 01:26:17,15.08836293,0.0001452,53.2165,120.5454,85.4424,274.6734,0.00019147,2.76e-05,0.0,0 STARLINK-4769,1 53843U 22114AB  23241.05991920  .00002760  00000-0  19147-3 0  9990,2 53843  53.2165 120.5454 0001452  85.4424 274.6734 15.08836293 52990,6917.892,95.438,540.761,538.752,0.0
53843.0,STARLINK-4769,PAYLOAD,2023-08-29 09:23:13,15.08836063,0.0001444,53.2161,119.0576,80.7339,279.3816,-1.4878e-05,-5.25e-06,0.0,0 STARLINK-4769,1 53843U 22114AB  23241.39112557 -.00000525  00000-0 -14878-4 0  9994,2 53843  53.2161 119.0576 0001444  80.7339 279.3816 15.08836063 53043,6917.892,95.438,540.756,538.758,0.0
53843.0,STARLINK-4769,PAYLOAD,2023-08-29 22:06:18,15.08840716,0.0001344,53.2163,116.6787,85.7126,274.402,4.2704e-06,-2.2e-06,0.0,0 STARLINK-4769,1 53843U 22114AB  23241.92104318 -.00000220  00000-0  42704-5 0  9990,2 53843  53.2163 116.6787 0001344  85.7126 274.4020 15.08840716 53661,6917.878,95.438,540.673,538.813,0.0
53843.0,STARLINK-4769,PAYLOAD,2023-08-29 23:41:41,15.08842181,0.0001366,53.2163,116.3813,82.5225,277.5922,2.2252e-05,6.6e-07,0.0,0 STARLINK-4769,1 53843U 22114AB  23241.98728169  .00000066  00000-0  22252-4 0  9994,2 53843  53.2163 116.3813 0001366  82.5225 277.5922 15.08842181 53132,6917.874,95.437,540.684,538.794,0.0
53843.0,STARLINK-4769,PAYLOAD,2023-08-30 09:13:59,15.08843668,0.0001357,53.2166,114.5969,85.922,274.1927,2.68e-05,1.39e-06,0.0,0 STARLINK-4769,1 53843U 22114AB  23242.38471966  .00000139  00000-0  26800-4 0  9993,2 53843  53.2166 114.5969 0001357  85.9220 274.1927 15.08843668 53734,6917.869,95.437,540.673,538.795,0.0
53843.0,STARLINK-4769,PAYLOAD,2023-08-31 01:07:50,15.0884608,0.0001464,53.2176,111.6237,94.1035,266.0125,7.9881e-05,9.84e-06,0.0,0 STARLINK-4769,1 53843U 22114AB  23243.04711483  .00000984  00000-0  79881-4 0  9993,2 53843  53.2176 111.6237 0001464  94.1035 266.0125 15.08846080 53298,6917.862,95.437,540.74,538.714,0.0
53843.0,STARLINK-4769,PAYLOAD,2023-09-01 00:58:39,15.08846234,0.0001731,53.2174,107.1704,62.1965,297.9203,-0.00057943,-9.5e-05,0.0,0 STARLINK-4769,1 53843U 22114AB  23244.04073638 -.00009500  00000-0 -57943-3 0  9996,2 53843  53.2174 107.1704 0001731  62.1965 297.9203 15.08846234 53447,6917.861,95.437,540.924,538.529,0.0
53843.0,STARLINK-4769,PAYLOAD,2023-09-02 00:49:25,15.08839349,0.0001589,53.2182,102.7007,88.4014,271.716,6.5881e-05,7.61e-06,0.0,0 STARLINK-4769,1 53843U 22114AB  23245.03431867  .00000761  00000-0  65881-4 0  9997,2 53843  53.2182 102.7007 0001589  88.4014 271.7160 15.08839349 53597,6917.882,95.438,540.847,538.648,0.0
53843.0,STARLINK-4769,PAYLOAD,2023-09-02 07:10:57,15.08836478,0.0001254,53.2166,101.511,71.5748,288.538,4.6239e-05,4.48e-06,0.0,0 STARLINK-4769,1 53843U 22114AB  23245.29928118  .00000448  00000-0  46239-4 0  9993,2 53843  53.2166 101.5110 0001254  71.5748 288.5380 15.08836478 54172,6917.891,95.438,540.624,538.889,0.0
53843.0,STARLINK-4769,PAYLOAD,2023-09-02 15:07:54,15.08834756,0.0001972,53.2186,100.0249,76.325,283.7961,-2.0049e-05,-6.07e-06,0.0,0 STARLINK-4769,1 53843U 22114AB  23245.63048858 -.00000607  00000-0 -20049-4 0  9995,2 53843  53.2186 100.0249 0001972  76.3250 283.7961 15.08834756 53683,6917.896,95.438,541.126,538.397,0.0
